IRIDIUM 155             
1 43573U 18061E   21040.59257735  .00000072  00000-0  18710-4 0  9998
2 43573  86.4014 153.1694 0001591 102.2734 257.8640 14.34218171133349
IRIDIUM 154             
1 43574U 18061F   21040.57355792  .00000063  00000-0  15552-4 0  9990
2 43574  86.4019 153.2180 0002290  91.5855 268.5603 14.34218706133394
IRIDIUM 163             
1 43575U 18061G   21040.55453168  .00000063  00000-0  15591-4 0  9998
2 43575  86.4017 153.2007 0002559 105.6845 254.4633 14.34218770133360
IRIDIUM 156             
1 43576U 18061H   21040.73846719  .00000061  00000-0  14748-4 0  9998
2 43576  86.4017 153.1289 0002082 107.4829 252.6595 14.34218028133380
IRIDIUM 164             
1 43577U 18061J   21040.57990578  .00000067  00000-0  16756-4 0  9991
2 43577  86.4018 153.2057 0002345  95.3158 264.8306 14.34217896133408
IRIDIUM 159             
1 43578U 18061K   21040.54817432  .00000070  00000-0  17855-4 0  9991
2 43578  86.4016 153.1967 0002240  93.9112 266.2340 14.34216059133363
IRIDIUM 180             
1 43922U 19002A   21040.40814127  .00000075  00000-0  19548-4 0  9999
2 43922  86.3939  90.1086 0003231  87.6326 272.5240 14.34216333108950
IRIDIUM 176             
1 43923U 19002B   21040.76711482  .00000151  00000-0  20006-4 0  9995
2 43923  86.6073  89.9903 0002500  89.2031 270.9472 14.72251405111848
IRIDIUM 168             
1 43924U 19002C   21040.40180943  .00000081  00000-0  21922-4 0  9999
2 43924  86.3942  90.1333 0002428  89.2098 270.9376 14.34218465108930
IRIDIUM 173             
1 43925U 19002D   21040.52865876  .00000088  00000-0  24470-4 0  9996
2 43925  86.3937  90.0484 0002417  91.9364 268.2109 14.34218201108948
IRIDIUM 169             
1 43926U 19002E   21040.50017381  .00000076  00000-0  18343-4 0  9994
2 43926  86.4237 121.6686 0002959 304.4699  55.6219 14.38603487109345
IRIDIUM 172             
1 43927U 19002F   21040.38276210  .00000093  00000-0  26290-4 0  9998
2 43927  86.3939  90.1113 0002472  90.6637 269.4842 14.34215532108921
IRIDIUM 175             
1 43928U 19002G   21040.76092983  .00000152  00000-0  20243-4 0  9992
2 43928  86.6057  89.8378 0002756 106.5074 253.6446 14.72252752111837
IRIDIUM 171             
1 43929U 19002H   21040.57304785  .00000083  00000-0  22615-4 0  9996
2 43929  86.3948  90.1212 0002408  89.1794 270.9677 14.34218985108949
IRIDIUM 170             
1 43930U 19002J   21040.16160883  .00000150  00000-0  19824-4 0  9995
2 43930  86.6074  90.2503 0002640  95.9123 264.2395 14.72251238111764
IRIDIUM 167             
1 43931U 19002K   21040.42716993  .00000085  00000-0  23445-4 0  9995
2 43931  86.3939  90.0981 0003007  86.7770 273.3769 14.34218778108924
